{
    "links": {
        "self": "http://www.neowsapp.com/rest/v1/neo/3873204?api_key=iIulBulltgU6a56xZRHN4H3l9WmuAYTsLGpBGhQ2"
    },
    "id": "3873204",
    "neo_reference_id": "3873204",
    "name": "(2019 TK)",
    "designation": "2019 TK",
    "nasa_jpl_url": "http://ssd.jpl.nasa.gov/sbdb.cgi?sstr=3873204",
    "absolute_magnitude_h": 28.1,
    "estimated_diameter": {
        "kilometers": {
            "estimated_diameter_min": 0.0063760979,
            "estimated_diameter_max": 0.0142573883
        },
        "meters": {
            "estimated_diameter_min": 6.3760978988,
            "estimated_diameter_max": 14.2573883328
        },
        "miles": {
            "estimated_diameter_min": 0.0039619223,
            "estimated_diameter_max": 0.0088591276
        },
        "feet": {
            "estimated_diameter_min": 20.9189570301,
            "estimated_diameter_max": 46.7762099378
        }
    },
    "is_potentially_hazardous_asteroid": false,
    "close_approach_data": [
        {
            "close_approach_date": "2019-10-03",
            "close_approach_date_full": "2019-Oct-03 14:58",
            "epoch_date_close_approach": 1570114680000,
            "relative_velocity": {
                "kilometers_per_second": "13.9363629501",
                "kilometers_per_hour": "50170.9066205087",
                "miles_per_hour": "31174.2502831711"
            },
            "miss_distance": {
                "astronomical": "0.0031240314",
                "lunar": "1.2152482146",
                "kilometers": "467348.443253118",
                "miles": "290396.8567563084"
            },
            "orbiting_body": "Earth"
        },
        {
            "close_approach_date": "2019-10-03",
            "close_approach_date_full": "2019-Oct-03 15:24",
            "epoch_date_close_approach": 1570116240000,
            "relative_velocity": {
                "kilometers_per_second": "14.7863726566",
                "kilometers_per_hour": "53230.9415638658",
                "miles_per_hour": "33075.6369956143"
            },
            "miss_distance": {
                "astronomical": "0.0056351873",
                "lunar": "2.1920878597",
                "kilometers": "843012.017131051",
                "miles": "523823.3774324638"
            },
            "orbiting_body": "Moon"
        }
    ],
    "orbital_data": {
        "orbit_id": "4",
        "orbit_determination_date": "2019-10-05 06:19:53",
        "first_observation_date": "2019-10-02",
        "last_observation_date": "2019-10-02",
        "data_arc_in_days": null,
        "observations_used": 54,
        "orbit_uncertainty": "7",
        "minimum_orbit_intersection": ".00172351",
        "jupiter_tisserand_invariant": "3.650",
        "epoch_osculation": "2459000.5",
        "eccentricity": ".5648884977846035",
        "semi_major_axis": "1.957493410244268",
        "inclination": "11.63110610220818",
        "ascending_node_longitude": "189.7658032151113",
        "orbital_period": "1000.342890526493",
        "perihelion_distance": ".8517278983081227",
        "perihelion_argument": "234.4482314049284",
        "aphelion_distance": "3.063258922180413",
        "perihelion_time": "2458798.816592026386",
        "mean_anomaly": "72.58113948536941",
        "mean_motion": ".359876601722563",
        "equinox": "J2000",
        "orbit_class": {
            "orbit_class_type": "APO",
            "orbit_class_description": "Near-Earth asteroid orbits which cross the Earth’s orbit similar to that of 1862 Apollo",
            "orbit_class_range": "a (semi-major axis) > 1.0 AU; q (perihelion) < 1.017 AU"
        }
    },
    "is_sentry_object": false
}